[{"OBJECT_NAME":"FOSSASAT-2E20 (TAT-O)","OBJECT_ID":"2025-009DN","EPOCH":"2026-03-09T17:00:18.734688","MEAN_MOTION":15.2699108,"ECCENTRICITY":0.00021892,"INCLINATION":97.3231,"RA_OF_ASC_NODE":146.2859,"ARG_OF_PERICENTER":347.5575,"MEAN_ANOMALY":12.561,"EPHEMERIS_TYPE":0,"CLASSIFICATION_TYPE":"U","NORAD_CAT_ID":63003,"ELEMENT_SET_NO":999,"REV_AT_EPOCH":12131,"BSTAR":0.00061862572,"MEAN_MOTION_DOT":0.00016337,"MEAN_MOTION_DDOT":0},{"OBJECT_NAME":"STARLINK-36174","OBJECT_ID":"2025-303D","EPOCH":"2026-03-09T01:54:54.106560","MEAN_MOTION":15.2759752,"ECCENTRICITY":0.00025097,"INCLINATION":43.0029,"RA_OF_ASC_NODE":314.0153,"ARG_OF_PERICENTER":253.7546,"MEAN_ANOMALY":106.303,"EPHEMERIS_TYPE":0,"CLASSIFICATION_TYPE":"U","NORAD_CAT_ID":67166,"ELEMENT_SET_NO":999,"REV_AT_EPOCH":1264,"BSTAR":0.001439838,"MEAN_MOTION_DOT":0.00039595,"MEAN_MOTION_DDOT":0}]
